"locator_domain","page_url","location_name","street_address","city","state","zip","country_code","store_number","phone","location_type","latitude","longitude","hours_of_operation"
"picknsave.com","https://www.picknsave.com/stores/details/534/00389","PNS FDL - Johnson St.","760 W. Johnson Street","FOND DU LAC","WI","54935","US","00389","9209296510","<MISSING>","43.7822284","-88.4754384","Su-Sa 06:00-23:00"
"picknsave.com","https://www.picknsave.com/stores/details/534/00353","PNS Monroe","246 8th St","MONROE","WI","53566","US","00353","6085646950","<MISSING>","42.6017849","-89.656268","Su-Sa 06:00-23:00"
"picknsave.com","https://www.picknsave.com/stores/details/534/00410","PNS Waterford","515 N. Milwaukee Street","WATERFORD","WI","53185","US","00410","2628046060","<MISSING>","42.769981","-88.203002","Su-Sa 06:00-23:00"
"picknsave.com","https://www.picknsave.com/stores/details/534/00121","Wisconsin Rapids","900 E. Riverview Expressway","WISCONSIN RAPIDS","WI","54494","US","00121","7156317180","<MISSING>","44.378309","-89.8155229","Su-Sa 06:00-23:00"
"picknsave.com","https://www.picknsave.com/stores/details/534/00407","PNS West Milwaukee","2201 Miller Park Way","WEST MILWAUKEE","WI","53219","US","00407","4143839755","<MISSING>","43.005201","-87.9701639","Su-Sa 06:00-23:00"
"picknsave.com","https://www.picknsave.com/stores/details/534/00329","PNS Sturgeon Bay","1847 Egg Harbor Rd","Sturgeon Bay","WI","54235","US","00329","9207438830","<MISSING>","44.8504115","-87.3494893","Su-Sa 06:00-23:00"
"picknsave.com","https://www.picknsave.com/stores/details/534/00404","PNS Mosinee","10101 Market Street","MOSINEE","WI","54474","US","00404","7152410191","<MISSING>","44.8646897","-89.6342833","Su-Sa 06:00-23:00"
"picknsave.com","https://www.picknsave.com/stores/details/534/00418","PNS W Good Hope","7401 W Good Hope Rd","Milwaukee","WI","53223","US","00418","4143580011","<MISSING>","43.1466823","-88.0024401","Su-Sa 06:00-23:00"
"picknsave.com","https://www.picknsave.com/stores/details/534/00393","PNS DeForest","621 S. Main Street","De Forest","WI","53532","US","00393","6088468922","<MISSING>","43.2402127","-89.3425138","Su-Sa 06:00-23:00"
"picknsave.com","https://www.picknsave.com/stores/details/534/00131","PNS Maple Grove","6655 McKee Road","Madison","WI","53719","US","00131","6084107050","<MISSING>","43.0136511","-89.4980118","Su-Sa 06:00-23:00"
"picknsave.com","https://www.picknsave.com/stores/details/534/00847","PNS West Allis - 67th Nat","6760 W. National Ave.","WEST ALLIS","WI","53214","US","00847","4144766061","<MISSING>","43.0149269","-87.9974899","Su-Sa 06:00-23:00"
"picknsave.com","https://www.picknsave.com/stores/details/534/00416","PNS - Hwy 100 Walnut","1717 N Mayfair Rd","Wauwatosa","WI","53226","US","00416","4147781839","<MISSING>","43.0537133","-88.049081","Su-Sa 06:00-23:00"
"picknsave.com","https://www.picknsave.com/stores/details/534/00856","PNS Mount Pleasant","1202 N. Green Bay Road","Mount Pleasant","WI","53406","US","00856","2628848749","<MISSING>","42.7355158","-87.8407363","Su-Sa 06:00-23:00"
"picknsave.com","https://www.picknsave.com/stores/details/534/00373","PNS Brookfield - Calhoun","2205 N. Calhoun Road","BROOKFIELD","WI","53005","US","00373","2626414480","<MISSING>","43.0588632","-88.1289068","Su-Sa 06:00-23:00"
"picknsave.com","https://www.picknsave.com/stores/details/534/00408","PNS Two Rivers","1010 22nd Street","Two Rivers","WI","54241","US","00408","9207932266","<MISSING>","44.15428","-87.5606389","Su-Sa 06:00-23:00"
"picknsave.com","https://www.picknsave.com/stores/details/534/00387","PNS Oak Creek - Ryan Rd","2320 W Ryan Rd","OAK CREEK","WI","53154","US","00387","4147611498","<MISSING>","42.8744531","-87.9479557","Su-Sa 06:00-23:00"
"picknsave.com","https://www.picknsave.com/stores/details/534/00415","PNS-Sunset West","1220 W. Sunset Drive","WAUKESHA","WI","53189","US","00415","2624466980","<MISSING>","42.9915922","-88.25768","Su-Sa 06:00-23:00"
"picknsave.com","https://www.picknsave.com/stores/details/534/00384","PNS Mukwonago","1010 Rochester Street","MUKWONAGO","WI","53149","US","00384","2623633026","<MISSING>","42.8751594","-88.3366789","Su-Sa 06:00-23:00"
"picknsave.com","https://www.picknsave.com/stores/details/534/00879","PNS Milw - N35th Street","2355 N. 35th Street","Milwaukee","WI","53210","US","00879","4144478255","<MISSING>","43.061901","-87.9590499","Su-Sa 07:00-22:00"
"picknsave.com","https://www.picknsave.com/stores/details/534/00845","PNS Milw - 27th Loomis","3701 S. 27th Street","MILWAUKEE","WI","53221","US","00845","4142812900","<MISSING>","42.9775127","-87.9503356","Su-Sa 06:00-23:00"
"picknsave.com","https://www.picknsave.com/stores/details/534/00378","PNS Caledonia","5111 Douglas Avenue","Racine","WI","53402","US","00378","2627520951","<MISSING>","42.7859","-87.807312","Su-Sa 06:00-23:00"
"picknsave.com","https://www.picknsave.com/stores/details/534/00351","PNS Eagle River","711 Hwy. 45 North","EAGLE RIVER","WI","54521","US","00351","7154794416","<MISSING>","45.925409","-89.254133","Su-Sa 06:00-23:00"
"picknsave.com","https://www.picknsave.com/stores/details/534/00876","PNS Glendale - Port Wash.","6969 N. Port Washington Road","GLENDALE","WI","53217","US","00876","4143510298","<MISSING>","43.1426003","-87.9136803","Su-Sa 06:00-23:00"
"picknsave.com","https://www.picknsave.com/stores/details/534/00405","PNS Wausau","205 Central Bridge Street","WAUSAU","WI","54401","US","00405","7158491323","<MISSING>","44.9670265","-89.6346445","Su-Sa 06:00-23:00"
"picknsave.com","https://www.picknsave.com/stores/details/534/00379","PNS Marshfield","641 S. Central Avenue","MARSHFIELD","WI","54449","US","00379","7153848716","<MISSING>","44.6610638","-90.1751301","Su-Sa 06:00-23:00"
"picknsave.com","https://www.picknsave.com/stores/details/534/00396","PNS Fort Atkinson","1505 Madison Avenue","Fort Atkinson","WI","53538","US","00396","9205682603","<MISSING>","42.939402","-88.860556","Su-Sa 06:00-23:00"
"picknsave.com","https://www.picknsave.com/stores/details/534/00124","PNS Neenah - Commercial","1530 S. Commercial St.","Neenah","WI","54956","US","00124","9207518842","<MISSING>","44.155403","-88.461385","Su-Sa 06:00-23:00"
"picknsave.com","https://www.picknsave.com/stores/details/534/00111","PNS Green Bay Bellevue","2064 Lime Kiln Rd.","Bellevue","WI","54311","US","00111","9204698293","<MISSING>","44.4646419","-87.9870699","Su-Sa 06:00-23:00"
"picknsave.com","https://www.picknsave.com/stores/details/534/00375","PNS Oshkosh - Jackson","1900 Jackson St","OSHKOSH","WI","54901","US","00375","9204247820","<MISSING>","44.0414489","-88.5416942","Su-Sa 06:00-23:00"
"picknsave.com","https://www.picknsave.com/stores/details/534/00868","PNS Milw - East Point","605 E. Lyon Street","MILWAUKEE","WI","53202","US","00868","4142726677","<MISSING>","43.0489986","-87.9040399","Su-Sa 06:00-23:00"
"picknsave.com","https://www.picknsave.com/stores/details/534/00352","PNS Waupaca","955 W. Fulton Street","Waupaca","WI","54981","US","00352","7152587624","<MISSING>","44.3558375","-89.1068362","Su-Sa 06:00-23:00"
"picknsave.com","https://www.picknsave.com/stores/details/534/00406","PNS Schofield","2806 Schofield Avenue","Schofield","WI","54476","US","00406","7153599123","<MISSING>","44.908191","-89.5889253","Su-Sa 06:00-23:00"
"picknsave.com","https://www.picknsave.com/stores/details/534/00413","PNS - Oconomowoc","N48 W36903 E. Wisconsin Ave.","OCONOMOWOC","WI","53066","US","00413","2625693155","<MISSING>","43.105877","-88.477411","Su-Sa 06:00-23:00"
"picknsave.com","https://www.picknsave.com/stores/details/534/00374","PNS Pewaukee - Capitol","1405 Capitol Drive","Pewaukee","WI","53072","US","00374","2626951156","<MISSING>","43.0850799","-88.229418","Su-Sa 06:00-23:00"
"picknsave.com","https://www.picknsave.com/stores/details/534/00381","PNS Muskego","S74 W17005 Janesville Rd.","MUSKEGO","WI","53150","US","00381","2626791931","<MISSING>","42.908292","-88.1262362","Su-Sa 06:00-23:00"
"picknsave.com","https://www.picknsave.com/stores/details/534/00392","PNS Columbus","210 Dix Street","Columbus","WI","53925","US","00392","9206232205","<MISSING>","43.34497","-89.031996","Su-Sa 06:00-23:00"
"picknsave.com","https://www.picknsave.com/stores/details/534/00127","PNS Phillips","256 Lake St.","PHILLIPS","WI","54555","US","00127","7152607001","<MISSING>","45.6874453","-90.3952399","Su-Sa 06:00-23:00"
"picknsave.com","https://www.picknsave.com/stores/details/534/00102","PNS Sun Prairie - Ironwood","2538 Ironwood Dr.","Sun Prairie","WI","53590","US","00102","6088372785","<MISSING>","43.186131","-89.2620384","Su-Sa 06:00-23:00"
"picknsave.com","https://www.picknsave.com/stores/details/534/00180","PNS Shorewood Hills","3650 University Ave.","SHOREWOOD HILLS","WI","53705","US","00180","6082316935","<MISSING>","43.0765316","-89.4493651","Su-Sa 06:00-23:00"
"picknsave.com","https://www.picknsave.com/stores/details/534/00365","PNS Milw - Midtown","5700 W Capitol Dr","Milwaukee","WI","53216","US","00365","4148733085","<MISSING>","43.0916795","-87.9841238","Su-Sa 06:00-22:00"
"picknsave.com","https://www.picknsave.com/stores/details/534/00178","PNS Madison - Shopko Dr","2502 Shopko Dr.","MADISON","WI","53704","US","00178","6082431000","<MISSING>","43.1133148","-89.3495763","Su-Sa 06:00-23:00"
"picknsave.com","https://www.picknsave.com/stores/details/534/00187","PNS Appleton - Calumet","511 West Calumet Street","Appleton","WI","54915","US","00187","9207340636","<MISSING>","44.241283","-88.414542","Su-Sa 06:00-23:00"
"picknsave.com","https://www.picknsave.com/stores/details/534/00472","PNS FDL - Pioneer","55 W Pioneer Rd","Fond du Lac","WI","54935","US","00472","9209219898","<MISSING>","43.7555891","-88.450962","Su-Sa 06:00-23:00"
"picknsave.com","https://www.picknsave.com/stores/details/534/00432","PNS Sheboygan - 25th St","1317 N 25th Street","SHEBOYGAN","WI","53081","US","00432","9204592802","<MISSING>","43.759201","-87.7383652","Su-Sa 06:00-23:00"
"picknsave.com","https://www.picknsave.com/stores/details/534/00394","PNS McFarland","5709 Hwy. 51","MCFARLAND","WI","53558","US","00394","6088383604","<MISSING>","43.0158813","-89.2999607","Su-Sa 06:00-23:00"
"picknsave.com","https://www.picknsave.com/stores/details/534/00366","PNS Hales Corners","5800 S 108th St","HALES CORNERS","WI","53130","US","00366","4144278812","<MISSING>","42.9389648","-88.0461502","Su-Sa 06:00-23:00"
"picknsave.com","https://www.picknsave.com/stores/details/534/00431","PNS Franklin","7780 S. Lovers Lane Rd","Franklin","WI","53132","US","00431","4144255400","<MISSING>","42.9035976","-88.0363435","Su-Sa 06:00-23:00"
"picknsave.com","https://www.picknsave.com/stores/details/534/00183","PNS Madison - Park","1312 Park St.","MADISON","WI","53715","US","00183","6082573748","<MISSING>","43.05233","-89.3958435","Su-Sa 06:00-23:00"
"picknsave.com","https://www.picknsave.com/stores/details/534/00390","PNS Stoughton","1750 Hwy. 51 West","STOUGHTON","WI","53589","US","00390","6088730171","<MISSING>","42.9196632","-89.2420377","Su-Sa 06:00-23:00"
"picknsave.com","https://www.picknsave.com/stores/details/534/00368","PNS Brookfield - Calhoun","17295 W Capitol Dr","Brookfield","WI","53045","US","00368","2627832080","<MISSING>","43.0887676","-88.1267585","Su-Sa 06:00-23:00"
"picknsave.com","https://www.picknsave.com/stores/details/534/00179","Pick n Save Madison - Junction","261 Junction Rd.","Madison","WI","53717","US","00179","6088292020","<MISSING>","43.0649297","-89.5253329","Su-Sa 06:00-23:00"
"picknsave.com","https://www.picknsave.com/stores/details/534/00887","PNS Coldspring","4279 South 76th Street","GREENFIELD","WI","53220","US","00887","4145410061","<MISSING>","42.9680749","-88.0090602","Su-Sa 06:00-23:00"
"picknsave.com","https://www.picknsave.com/stores/details/534/00128","PNS Middleton","6800 Century Ave.","Middleton","WI","53562","US","00128","6088313009","<MISSING>","43.1077744","-89.4979684","Su-Sa 06:00-23:00"
"picknsave.com","https://www.picknsave.com/stores/details/534/00403","PNS Appleton - Stoneybroo","N135 Stoneybrook Rd.","APPLETON","WI","54915","US","00403","9209970232","<MISSING>","44.2454944","-88.352904","Su-Sa 06:00-23:00"
"picknsave.com","https://www.picknsave.com/stores/details/534/00348","PNS Oak Creek - Tri City","6462 S 27th St","Oak Creek","WI","53154","US","00348","4147611240","<MISSING>","42.9277681","-87.9475856","Su-Sa 06:00-23:00"
"picknsave.com","https://www.picknsave.com/stores/details/534/00417","PNS West Bend - Washingto","2518 West Washington Street","West Bend","WI","53095","US","00417","2623385632","<MISSING>","43.428919","-88.217117","Su-Sa 06:00-23:00"
"picknsave.com","https://www.picknsave.com/stores/details/534/00343","PNS Plymouth WI","2643 Eastern Ave","PLYMOUTH","WI","53073","US","00343","9208926648","<MISSING>","43.7464701","-87.9486731","Su-Sa 06:00-23:00"
"picknsave.com","https://www.picknsave.com/stores/details/534/00398","PNS Delafield","3161 Village Square Drive","NASHOTAH","WI","53029","US","00398","2623691416","<MISSING>","43.103186","-88.365206","Su-Sa 06:00-23:00"
"picknsave.com","https://www.picknsave.com/stores/details/534/00867","PNS Brown Deer - Green Ba","9200 N. Green Bay Rd.","Brown Deer","WI","53209","US","00867","4143546653","<MISSING>","43.1847502","-87.9626825","Su-Sa 06:00-23:00"
"picknsave.com","https://www.picknsave.com/stores/details/534/00414","PNS - Burlington","1008 Milwaukee Avenue","Burlington","WI","53105","US","00414","2627633695","<MISSING>","42.689279","-88.265033","Su-Sa 06:00-23:00"
"picknsave.com","https://www.picknsave.com/stores/details/534/00882","PNS Milw - 11th Garfield","1100 E. Garfield","MILWAUKEE","WI","53212","US","00882","4143748621","<MISSING>","43.0594056","-87.8969539","Su-Sa 06:00-23:00"
"picknsave.com","https://www.picknsave.com/stores/details/534/00115","Antigo","406 Highway 64","Antigo","WI","54409","US","00115","7156237621","<MISSING>","45.1636884","-89.1467303","Su-Sa 06:00-23:00"
"picknsave.com","https://www.picknsave.com/stores/details/534/00372","PNS 81st Bluemound","8151 W. Bluemound Road","MILWAUKEE","WI","53213","US","00372","4147719039","<MISSING>","43.0355055","-88.0144455","Su-Sa 06:00-23:00"
"picknsave.com","https://www.picknsave.com/stores/details/534/00430","PNS West Bend - South","1629 South Main St.","West Bend","WI","53095","US","00430","2623385626","<MISSING>","43.400358","-88.180132","Su-Sa 06:00-23:00"
"picknsave.com","https://www.picknsave.com/stores/details/534/00357","PNS Germantown","N112 W16200 Mequon Rd","GERMANTOWN","WI","53022","US","00357","2622530841","<MISSING>","43.222075","-88.110226","Su-Sa 06:00-23:00"
"picknsave.com","https://www.picknsave.com/stores/details/534/00878","PNS Milw - Holt","250 West Holt Avenue","MILWAUKEE","WI","53207","US","00878","4142942144","<MISSING>","42.9840325","-87.9129571","Su-Sa 06:00-23:00"
"picknsave.com","https://www.picknsave.com/stores/details/534/00891","PNS Mt Pleasant South","2820 South Green Bay Road","MOUNT PLEASANT","WI","53406","US","00891","2625549630","<MISSING>","42.6987983","-87.8565992","Su-Sa 06:00-23:00"
"picknsave.com","https://www.picknsave.com/stores/details/534/00130","PNS - Sun Prairie - E Main","640 E Main Street","SUN PRAIRIE","WI","53590","US","00130","6088377555","<MISSING>","43.1814165","-89.2043715","Su-Sa 06:00-23:00"
"picknsave.com","https://www.picknsave.com/stores/details/534/00308","PNS Waukesha - Sunset E","220 E Sunset Dr","Waukesha","WI","53189","US","00308","2625477801","<MISSING>","42.9894772","-88.2224775","Su-Sa 06:00-23:00"
"picknsave.com","https://www.picknsave.com/stores/details/534/00185","Pick n Save - Manitowoc","3300 Calumet Avenue","Manitowoc","WI","54220","US","00185","9206826827","<MISSING>","44.0863041","-87.6894647","Su-Sa 06:00-23:00"
"picknsave.com","https://www.picknsave.com/stores/details/534/00888","PNS Watertown","624 S Church Street","Watertown","WI","53094","US","00888","9202618281","<MISSING>","43.188267","-88.7315055","Su-Sa 06:00-23:00"
"picknsave.com","https://www.picknsave.com/stores/details/534/00857","PNS St. Francis","4698 S. Whitnall","St Francis","WI","53235","US","00857","4147698801","<MISSING>","42.960767","-87.87605","Su-Sa 06:00-23:00"
"picknsave.com","https://www.picknsave.com/stores/details/534/00123","Pick n Save Appleton - Ballard","2700 N. Ballard Ave.","APPLETON","WI","54911","US","00123","9209930148","<MISSING>","44.2861969","-88.372519","Su-Sa 06:00-23:00"
"picknsave.com","https://www.picknsave.com/stores/details/534/00360","PNS Franklin - Rawson","7201 S 76th St","Franklin","WI","53132","US","00360","4144278100","<MISSING>","42.913918","-88.012773","Su-Sa 06:00-23:00"
"picknsave.com","https://www.picknsave.com/stores/details/534/00871","PNS Kenosha - 18th St.","2811 - 18th Street","Kenosha","WI","53140","US","00871","2625970110","<MISSING>","42.6232173","-87.8444179","Su-Sa 06:00-23:00"
"picknsave.com","https://www.picknsave.com/stores/details/534/00175","Pick n Save Wautoma","N2573 Plaza Dr.","Wautoma","WI","54982","US","00175","9207872027","<MISSING>","44.072299","-89.2713175","Su-Sa 06:00-23:00"
"picknsave.com","https://www.picknsave.com/stores/details/534/00846","PNS West Allis - 108th Cl","2625 S. 108th St.","West Allis","WI","53227","US","00846","4145411333","<MISSING>","42.997141","-88.0496016","Su-Sa 06:00-23:00"
"picknsave.com","https://www.picknsave.com/stores/details/534/00380","PNS Sussex","N65 W24838 Main St.","SUSSEX","WI","53089","US","00380","2622469151","<MISSING>","43.1374135","-88.2406254","Su-Sa 06:00-23:00"
"picknsave.com","https://www.picknsave.com/stores/details/534/00182","PNS Fitchburg","3010 Cahill Main","Fitchburg","WI","53711","US","00182","6082712024","<MISSING>","43.018185","-89.421417","Su-Sa 06:00-23:00"
"picknsave.com","https://www.picknsave.com/stores/details/534/00386","PNS Wales","405 N. Wales Road","Wales","WI","53183","US","00386","2629689460","<MISSING>","43.0103738","-88.3854876","Su-Sa 06:00-23:00"
"picknsave.com","https://www.picknsave.com/stores/details/534/00397","PNS Brookfield - Greenfie","15170 W. Greenfield Ave.","BROOKFIELD","WI","53005","US","00397","2627822745","<MISSING>","43.0179218","-88.1016015","Su-Sa 06:00-23:00"
"picknsave.com","https://www.picknsave.com/stores/details/534/00186","PNS - Green Bay-Main","1819 Main St.","Green Bay","WI","54302","US","00186","9204680447","<MISSING>","44.495662","-87.976595","Su-Sa 06:00-23:00"
"picknsave.com","https://www.picknsave.com/stores/details/534/00874","PNS Kenosha - Hwy 50","5710 - 75th Street","Kenosha","WI","53142","US","00874","2626974982","<MISSING>","42.5685798","-87.8771383","Su-Sa 06:00-23:00"
"picknsave.com","https://www.picknsave.com/stores/details/534/00382","PNS New Berlin 154th Nat","15445 W. National Ave.","New Berlin","WI","53151","US","00382","2627891000","<MISSING>","42.9749798","-88.1061331","Su-Sa 06:00-23:00"
"picknsave.com","https://www.picknsave.com/stores/details/534/00862","PNS Oak Creek - Puetz How","8770 S. Howell Ave.","Oak Creek","WI","53154","US","00862","4145719910","<MISSING>","42.8851925","-87.9097975","Su-Sa 06:00-23:00"
"picknsave.com","https://www.picknsave.com/stores/details/534/00412","PNS Neenah-Green Bay Rd","828 Fox Point Plaza","Neenah","WI","54956","US","00412","9207229427","<MISSING>","44.176142","-88.482137","Su-Sa 06:00-23:00"
"picknsave.com","https://www.picknsave.com/stores/details/534/00877","PNS South Milwaukee","2931 S. Chicago Avenue","South Milwaukee","WI","53172","US","00877","4147640925","<MISSING>","42.902601","-87.8636559","Su-Sa 06:00-23:00"
"picknsave.com","https://www.picknsave.com/stores/details/534/00889","PNS Men Falls - East","N77 W14435 Appleton Avenue","MENOMONEE FALLS","WI","53051","US","00889","2622557598","<MISSING>","43.158382","-88.090415","Su-Sa 06:00-23:00"
"picknsave.com","https://www.picknsave.com/stores/details/534/00118","Pick n Save Appleton - Wisc Ave","2400 W. Wisconsin Ave.","APPLETON","WI","54914","US","00118","9208310333","<MISSING>","44.2746386","-88.4447433","Su-Sa 06:00-23:00"
"picknsave.com","https://www.picknsave.com/stores/details/534/00181","PNS Monona","6540 Monona Dr.","Monona","WI","53716","US","00181","6082229575","<MISSING>","43.045768","-89.322489","Su-Sa 06:00-23:00"
"picknsave.com","https://www.picknsave.com/stores/details/534/00478","PNS Oshkosh - Koeller 20t","1940 S Koeller Dr","OSHKOSH","WI","54901","US","00478","9203033300","<MISSING>","43.9986325","-88.5761178","Su-Sa 06:00-23:00"
"picknsave.com","https://www.picknsave.com/stores/details/534/00886","PNS - Grafton","301 Falls Road","Grafton","WI","53024","US","00886","2622435900","<MISSING>","43.3080241","-87.9616959","Su-Sa 06:00-23:00"
"picknsave.com","https://www.picknsave.com/stores/details/534/00880","PNS Glendale - 17th Silve","1735 W. Silver Spring","GLENDALE","WI","53209","US","00880","4143510271","<MISSING>","43.1180191","-87.9319916","Su-Sa 06:00-23:00"
"picknsave.com","https://www.picknsave.com/stores/details/534/00107","PNS Green Bay Lombardi","1291 Lombardi Access","GREEN BAY","WI","54304","US","00107","9204989734","<MISSING>","44.5066853","-88.0759428","Su-Sa 06:00-23:00"
